GSAT-10                 
1 38779U 12051B   26177.18298618 -.00000154  00000+0  00000+0 0  9998
2 38779   0.0602 259.3805 0008149 191.2034 332.6263  1.00272100 50180
INTELSAT 23 (IS-23)     
1 38867U 12057A   26177.21216742 -.00000274  00000+0  00000+0 0  9997
2 38867   0.0125  19.9926 0000166 139.0605 138.6564  1.00271666 50046
BEIDOU-2 G6             
1 38953U 12059A   26177.11195579 -.00000169  00000+0  00000+0 0  9991
2 38953   4.4446  73.4318 0009745 328.6393 356.5103  1.00271444 49994
LUCH-5B                 
1 38977U 12061A   26176.94952363 -.00000136  00000+0  00000+0 0  9996
2 38977  10.5027  49.7963 0002474 136.6734  53.1826  1.00272691 49697
YAMAL 300K              
1 38978U 12061B   26177.13156119  .00000000  00000+0  00000+0 0  9993
2 38978   0.0186   3.3607 0000460 235.5710 265.6601  1.00273404 49723
STAR ONE C3             
1 38991U 12062A   26177.14906012 -.00000238  00000+0  00000+0 0  9999
2 38991   0.0134  54.0722 0002577  49.8348 149.0404  1.00272243 49856
EUTELSAT 21B            
1 38992U 12062B   26177.17085279  .00000141  00000+0  00000+0 0  9998
2 38992   0.0652   3.8827 0002897  82.6437 270.8666  1.00271705 49911
ECHOSTAR 16             
1 39008U 12065A   26177.19776861 -.00000271  00000+0  00000+0 0  9991
2 39008   0.0042  82.3044 0002141  12.5600 189.1561  1.00271454 49739
ZHONGXING-12            
1 39017U 12067A   26177.04139848 -.00000195  00000+0  00000+0 0  9990
2 39017   0.0288 100.3632 0003164 345.9901 290.2047  1.00270648 49599
EUTELSAT 70B            
1 39020U 12069A   26177.18055950 -.00000032  00000+0  00000+0 0  9992
2 39020   0.0607 351.8215 0003487 103.5949 314.4065  1.00270498 49598
YAMAL 402               
1 39022U 12070A   26176.74975894  .00000095  00000+0  00000+0 0  9993
2 39022   1.2871  84.0666 0004073   9.1064 145.5288  1.00273721 49482
SKYNET 5D               
1 39034U 12075A   26177.17709284  .00000110  00000+0  00000+0 0  9995
2 39034   0.0679 344.7654 0004034 121.1123 284.9906  1.00275521 49248
MEXSAT 3                
1 39035U 12075B   26177.22600897  .00000000  00000+0  00000+0 0  9990
2 39035   0.0228   3.6618 0001301  73.0280 164.2403  1.00274911  7140
TDRS 11                 
1 39070U 13004A   26177.16153873  .00000087  00000+0  00000+0 0  9997
2 39070   3.5337  31.4030 0005074  23.6457 102.9558  1.00272656 46780
AMAZONAS 3              
1 39078U 13006A   26176.86939140 -.00000272  00000+0  00000+0 0  9999
2 39078   0.0505 232.5374 0002569 259.5721  33.8526  1.00269372 45004
AZERSPACE 1             
1 39079U 13006B   26177.17570616  .00000144  00000+0  00000+0 0  9991
2 39079   0.0164 333.0886 0001911 150.5217 259.9486  1.00274738 48899
SBIRS GEO-2 (USA 241)   
1 39120U 13011A   26176.99087882 -.00000280  00000+0  00000+0 0  9993
2 39120   4.5080  52.5110 0002064  33.7224 134.8023  1.00271385 48629
EUTELSAT 117 WEST A     
1 39122U 13012A   26177.22721911 -.00000002  00000+0  00000+0 0  9993
2 39122   0.0309 299.6998 0003018 152.5793 147.0762  1.00270679 48525
ANIK G1                 
1 39127U 13014A   26177.22923443 -.00000063  00000+0  00000+0 0  9991
2 39127   0.0234 286.9487 0001930 164.6737 157.9469  1.00272596 48346
ZHONGXING-11            
1 39157U 13020A   26176.97210544 -.00000280  00000+0  00000+0 0  9994
2 39157   0.0191 313.2763 0002631 120.3108 288.3896  1.00271990 47981
EUTELSAT 7B             
1 39163U 13022A   26177.16799279  .00000059  00000+0  00000+0 0  9995
2 39163   0.0657   9.8029 0004367  32.5537 299.4049  1.00272660 48031
WGS F5 (USA 243)        
1 39168U 13024A   26176.51459372 -.00000274  00000+0  00000+0 0  9997
2 39168   0.0093 318.7694 0000389  92.6677 354.9578  1.00271620 47254
SES-6                   
1 39172U 13026A   26177.15863273 -.00000250  00000+0  00000+0 0  9998
2 39172   0.0167  10.0908 0002870  89.1909 191.6168  1.00271103 47816
IRNSS-1A                
1 39199U 13034A   26176.74993227  .00000048  00000+0  00000+0 0  9997
2 39199  35.7396  63.7472 0018407 178.4200 356.6391  1.00277689 47450
MUOS-2                  
1 39206U 13036A   26176.91545104 -.00000006  00000+0  00000+0 0  9999
2 39206   5.0120  45.5399 0051591 177.2663 192.8276  1.00274655 47284
ALPHASAT                
1 39215U 13038A   26177.17154612  .00000142  00000+0  00000+0 0  9990
2 39215   2.9989   1.3093 0002145 100.8462 258.7866  1.00272366 44106
INSAT-3D                
1 39216U 13038B   26176.97843213 -.00000330  00000+0  00000+0 0  9990
2 39216   1.9489  82.4409 0001129   0.0611 313.3627  1.00272220 47161
WGS F6 (USA 244)        
1 39222U 13041A   26176.99731336  .00000100  00000+0  00000+0 0  9999
2 39222   0.0176  16.4260 0000435  72.3099  49.2162  1.00271020 46158
ES'HAIL 1               
1 39233U 13044A   26177.17163279  .00000154  00000+0  00000+0 0  9999
2 39233   0.0487  12.1797 0002216  79.1226 270.2572  1.00273625 46715
GSAT-7                  
1 39234U 13044B   26177.10996244 -.00000066  00000+0  00000+0 0  9992
2 39234   0.1055  92.0047 0002642 188.5089 107.2613  1.00271803 45347
AMOS-4                  
1 39237U 13045A   26177.10822911  .00000000  00000+0  00000+0 0  9992
2 39237   0.0350  66.6602 0002241  12.2392 299.2940  1.00270921 47040
AEHF-3 (USA 246)        
1 39256U 13050A   26177.22512110  .00000035  00000+0  00000+0 0  9997
2 39256   5.3152  67.1020 0088020 188.0194 336.0561  1.00274846 45744
