OBJECT_NAME,OBJECT_ID,EPOCH,MEAN_MOTION,ECCENTRICITY,INCLINATION,RA_OF_ASC_NODE,ARG_OF_PERICENTER,MEAN_ANOMALY,EPHEMERIS_TYPE,CLASSIFICATION_TYPE,NORAD_CAT_ID,ELEMENT_SET_NO,REV_AT_EPOCH,BSTAR,MEAN_MOTION_DOT,MEAN_MOTION_DDOT
GSAT-10,2012-051B,2026-06-26T04:23:30.005952,1.00272100,.0008149,0.0602,259.3805,191.2034,332.6263,0,U,38779,999,5018,0,-.154E-5,0
INTELSAT 23 (IS-23),2012-057A,2026-06-26T05:05:31.265088,1.00271666,.0000166,0.0125,19.9926,139.0605,138.6564,0,U,38867,999,5004,0,-.274E-5,0
BEIDOU-2 G6,2012-059A,2026-06-26T02:41:12.980256,1.00271444,.0009745,4.4446,73.4318,328.6393,356.5103,0,U,38953,999,4999,0,-.169E-5,0
LUCH-5B,2012-061A,2026-06-25T22:47:18.841632,1.00272691,.0002474,10.5027,49.7963,136.6734,53.1826,0,U,38977,999,4969,0,-.136E-5,0
YAMAL 300K,2012-061B,2026-06-26T03:09:26.886816,1.00273404,.000046,0.0186,3.3607,235.5710,265.6601,0,U,38978,999,4972,0,0,0
STAR ONE C3,2012-062A,2026-06-26T03:34:38.794368,1.00272243,.0002577,0.0134,54.0722,49.8348,149.0404,0,U,38991,999,4985,0,-.238E-5,0
EUTELSAT 21B,2012-062B,2026-06-26T04:06:01.681056,1.00271705,.0002897,0.0652,3.8827,82.6437,270.8666,0,U,38992,999,4991,0,.141E-5,0
ECHOSTAR 16,2012-065A,2026-06-26T04:44:47.207904,1.00271454,.0002141,0.0042,82.3044,12.5600,189.1561,0,U,39008,999,4973,0,-.271E-5,0
ZHONGXING-12,2012-067A,2026-06-26T00:59:36.828672,1.00270648,.0003164,0.0288,100.3632,345.9901,290.2047,0,U,39017,999,4959,0,-.195E-5,0
EUTELSAT 70B,2012-069A,2026-06-26T04:20:00.340800,1.00270498,.0003487,0.0607,351.8215,103.5949,314.4065,0,U,39020,999,4959,0,-.32E-6,0
YAMAL 402,2012-070A,2026-06-25T17:59:39.172416,1.00273721,.0004073,1.2871,84.0666,9.1064,145.5288,0,U,39022,999,4948,0,.95E-6,0
SKYNET 5D,2012-075A,2026-06-26T04:15:00.821376,1.00275521,.0004034,0.0679,344.7654,121.1123,284.9906,0,U,39034,999,4924,0,.11E-5,0
MEXSAT 3,2012-075B,2026-06-26T05:25:27.175008,1.00274911,.0001301,0.0228,3.6618,73.0280,164.2403,0,U,39035,999,714,0,0,0
TDRS 11,2013-004A,2026-06-26T03:52:36.946272,1.00272656,.0005074,3.5337,31.4030,23.6457,102.9558,0,U,39070,999,4678,0,.87E-6,0
AMAZONAS 3,2013-006A,2026-06-25T20:51:55.416960,1.00269372,.0002569,0.0505,232.5374,259.5721,33.8526,0,U,39078,999,4500,0,-.272E-5,0
AZERSPACE 1,2013-006B,2026-06-26T04:13:01.012224,1.00274738,.0001911,0.0164,333.0886,150.5217,259.9486,0,U,39079,999,4889,0,.144E-5,0
SBIRS GEO-2 (USA 241),2013-011A,2026-06-25T23:46:51.930048,1.00271385,.0002064,4.5080,52.5110,33.7224,134.8023,0,U,39120,999,4862,0,-.28E-5,0
EUTELSAT 117 WEST A,2013-012A,2026-06-26T05:27:11.731104,1.00270679,.0003018,0.0309,299.6998,152.5793,147.0762,0,U,39122,999,4852,0,-.2E-7,0
ANIK G1,2013-014A,2026-06-26T05:30:05.854752,1.00272596,.000193,0.0234,286.9487,164.6737,157.9469,0,U,39127,999,4834,0,-.63E-6,0
ZHONGXING-11,2013-020A,2026-06-25T23:19:49.910016,1.00271990,.0002631,0.0191,313.2763,120.3108,288.3896,0,U,39157,999,4798,0,-.28E-5,0
EUTELSAT 7B,2013-022A,2026-06-26T04:01:54.577056,1.00272660,.0004367,0.0657,9.8029,32.5537,299.4049,0,U,39163,999,4803,0,.59E-6,0
WGS F5 (USA 243),2013-024A,2026-06-25T12:21:00.897408,1.00271620,.0000389,0.0093,318.7694,92.6677,354.9578,0,U,39168,999,4725,0,-.274E-5,0
SES-6,2013-026A,2026-06-26T03:48:25.867872,1.00271103,.000287,0.0167,10.0908,89.1909,191.6168,0,U,39172,999,4781,0,-.25E-5,0
IRNSS-1A,2013-034A,2026-06-25T17:59:54.148128,1.00277689,.0018407,35.7396,63.7472,178.4200,356.6391,0,U,39199,999,4745,0,.48E-6,0
MUOS-2,2013-036A,2026-06-25T21:58:14.969856,1.00274655,.0051591,5.0120,45.5399,177.2663,192.8276,0,U,39206,999,4728,0,-.6E-7,0
ALPHASAT,2013-038A,2026-06-26T04:07:01.584768,1.00272366,.0002145,2.9989,1.3093,100.8462,258.7866,0,U,39215,999,4410,0,.142E-5,0
INSAT-3D,2013-038B,2026-06-25T23:28:56.536032,1.00272220,.0001129,1.9489,82.4409,0.0611,313.3627,0,U,39216,999,4716,0,-.33E-5,0
WGS F6 (USA 244),2013-041A,2026-06-25T23:56:07.874304,1.00271020,.0000435,0.0176,16.4260,72.3099,49.2162,0,U,39222,999,4615,0,.1E-5,0
ES'HAIL 1,2013-044A,2026-06-26T04:07:09.073056,1.00273625,.0002216,0.0487,12.1797,79.1226,270.2572,0,U,39233,999,4671,0,.154E-5,0
GSAT-7,2013-044B,2026-06-26T02:38:20.754816,1.00271803,.0002642,0.1055,92.0047,188.5089,107.2613,0,U,39234,999,4534,0,-.66E-6,0
AMOS-4,2013-045A,2026-06-26T02:35:50.995104,1.00270921,.0002241,0.0350,66.6602,12.2392,299.2940,0,U,39237,999,4704,0,0,0
AEHF-3 (USA 246),2013-050A,2026-06-26T05:24:10.463040,1.00274846,.008802,5.3152,67.1020,188.0194,336.0561,0,U,39256,999,4574,0,.35E-6,0
